IRIDIUM 33 DEB          
1 35487U 97051QH  17345.37942424  .00003739  00000-0  86639-3 0  9991
2 35487  86.3385 203.8598 0055654  50.6839  71.2464 14.53883918449868
